     2.100          NAVIGATION                              RINEX VERSION / TYPE
fic2rin                                 03/18/2012 00:05:26 PGM / RUN BY / DATE
                                                            END OF HEADER
14 12  3 17 20  0  0.0  .197372399271D-03  .113686837722D-11  .000000000000D+00
     .880000000000D+02  .222812500000D+02  .405374028313D-08 -.253362003291D+01
     .123679637909D-05  .615377456415D-02  .100973993540D-04  .515356831169D+04
     .590400000000D+06  .130385160446D-06  .230482956828D+01 -.204890966415D-07
     .979272894510D+00  .194187500000D+03 -.205352646507D+01 -.765317592835D-08
    -.267511142913D-09  .100000000000D+01  .167900000000D+04  .000000000000D+00
     .240000000000D+01  .000000000000D+00 -.884756445885D-08  .880000000000D+02
     .583206000000D+06  .400000000000D+01
15 12  3 17 20  0  0.0 -.919401645660D-04  .341060513165D-12  .000000000000D+00
     .870000000000D+02  .337500000000D+01  .483663003648D-08 -.298021413724D+01
     .214204192162D-06  .438557786401D-02  .979378819466D-05  .515378681946D+04
     .590400000000D+06 -.819563865662D-07  .221934545566D+01  .149011611938D-07
     .946105440266D+00  .184531250000D+03  .578032814301D-01 -.808319384033D-08
    -.336442585613D-09  .100000000000D+01  .167900000000D+04  .000000000000D+00
     .340000000000D+01  .000000000000D+00 -.102445483208D-07  .870000000000D+02
     .583206000000D+06  .400000000000D+01
16 12  3 17 20  0  0.0 -.227781478316D-03 -.147792889038D-11  .000000000000D+00
     .480000000000D+02 -.495312500000D+02  .426982071231D-08 -.115051550320D+01
    -.258348882198D-05  .653130258434D-02  .386126339436D-05  .515363199234D+04
     .590400000000D+06 -.335276126862D-07 -.190751626010D+01 -.987201929092D-07
     .979538108391D+00  .315156250000D+03 -.671665583968D-01 -.820569894316D-08
    -.111076055335D-09  .100000000000D+01  .167900000000D+04  .000000000000D+00
     .240000000000D+01  .000000000000D+00 -.977888703346D-08  .480000000000D+02
     .583206000000D+06  .400000000000D+01
17 12  3 17 20  0  0.0  .141983851790D-03 -.250111042988D-11  .000000000000D+00
     .280000000000D+02 -.880000000000D+02  .420374653149D-08 -.213567830339D+01
    -.450387597084D-05  .726712774485D-02  .983290374279D-05  .515365701485D+04
     .590400000000D+06  .335276126862D-07 -.866148199966D+00 -.109896063805D-06
     .962560559334D+00  .191187500000D+03 -.232211066114D+01 -.778318134360D-08
     .117862052285D-10  .100000000000D+01  .167900000000D+04  .000000000000D+00
     .240000000000D+01  .000000000000D+00 -.107102096081D-07  .280000000000D+02
     .583206000000D+06  .400000000000D+01
18 12  3 17 20  0  0.0  .186622142792D-03  .181898940355D-11  .000000000000D+00
     .290000000000D+02 -.562500000000D+00  .571916679768D-08 -.660127249178D+00
     .175088644028D-06  .129389411304D-01  .534951686859D-05  .515367143631D+04
     .590400000000D+06 -.614672899246D-07  .120359788947D+01  .258907675743D-06
     .930097628882D+00  .261375000000D+03 -.219131495048D+01 -.883751097495D-08
    -.130719730716D-09  .100000000000D+01  .167900000000D+04  .000000000000D+00
     .240000000000D+01  .000000000000D+00 -.107102096081D-07  .290000000000D+02
     .583206000000D+06  .400000000000D+01
19 12  3 17 20  0  0.0 -.246479641646D-03 -.386535248253D-11  .000000000000D+00
     .107000000000D+03 -.812812500000D+02  .428982154543D-08 -.295548875460D+01
    -.409595668316D-05  .801502261311D-02  .112392008305D-04  .515376716805D+04
     .590400000000D+06 -.763684511185D-07 -.812908940600D+00 -.931322574615D-08
     .959996539389D+00  .162500000000D+03  .141176448611D+00 -.784104089654D-08
     .475019786481D-10  .100000000000D+01  .167900000000D+04  .000000000000D+00
     .340000000000D+01  .000000000000D+00 -.144354999065D-07  .107000000000D+03
     .583206000000D+06  .400000000000D+01
20 12  3 17 20  0  0.0  .633536837995D-04 -.113686837722D-12  .000000000000D+00
     .850000000000D+02  .390625000000D+01  .572023827088D-08 -.290386311435D+00
     .109896063805D-06  .512248941232D-02  .559538602829D-05  .515373478508D+04
     .590400000000D+06 -.167638063431D-07  .114980802870D+01  .596046447754D-07
     .930540578533D+00  .260218750000D+03  .128574645085D+01 -.873929259804D-08
    -.653598653579D-10  .100000000000D+01  .167900000000D+04  .000000000000D+00
     .240000000000D+01  .000000000000D+00 -.791624188423D-08  .850000000000D+02
     .583206000000D+06  .400000000000D+01
21 12  3 17 20  0  0.0 -.211284961551D-03 -.250111042988D-11  .000000000000D+00
     .240000000000D+02  .351562500000D+02  .532343602819D-08  .396041970932D+00
     .201351940632D-05  .187893122202D-01  .861287117004D-05  .515363562584D+04
     .590400000000D+06 -.221654772758D-06  .152246896849D+00  .333413481712D-06
     .931893330103D+00  .201562500000D+03 -.227964694913D+01 -.863928843247D-08
     .330370904131D-09  .100000000000D+01  .167900000000D+04  .000000000000D+00
     .240000000000D+01  .000000000000D+00 -.111758708954D-07  .240000000000D+02
     .583206000000D+06  .400000000000D+01
22 12  3 17 20  0  0.0  .143115874380D-03  .227373675443D-12  .000000000000D+00
     .880000000000D+02 -.146875000000D+01  .564844956631D-08 -.150269194867D+01
     .186264514923D-08  .581302249338D-02  .544451177120D-05  .515367829704D+04
     .590400000000D+06  .102445483208D-06  .120712348693D+01  .119209289551D-06
     .927811972990D+00  .254687500000D+03 -.200595500824D+01 -.858607193007D-08
    -.107147320259D-09  .100000000000D+01  .167900000000D+04  .000000000000D+00
     .340000000000D+01  .000000000000D+00 -.167638063431D-07  .880000000000D+02
     .583206000000D+06  .400000000000D+01
23 12  3 17 20  0  0.0  .223365146667D-03 -.352429196937D-11  .000000000000D+00
     .520000000000D+02  .186875000000D+02  .448482966830D-08  .289962389814D+01
     .985339283943D-06  .762460450642D-02  .110380351543D-04  .515366157913D+04
     .590400000000D+06 -.130385160446D-06  .225401642104D+01 -.596046447754D-07
     .960824289160D+00  .168062500000D+03 -.302811358177D+01 -.786032741419D-08
    -.327156484524D-09  .100000000000D+01  .167900000000D+04  .000000000000D+00
     .240000000000D+01  .000000000000D+00 -.200234353542D-07  .520000000000D+02
     .583206000000D+06  .400000000000D+01
26 12  3 17 20  0  0.0 -.169993843883D-03 -.566160451854D-10  .000000000000D+00
     .980000000000D+02  .343750000000D+01  .386551815720D-08  .276240040047D+01
     .540167093277D-07  .209087177645D-01  .106152147055D-04  .515365906334D+04
     .590400000000D+06  .113621354103D-06  .232523904269D+01 -.244006514549D-06
     .983968310024D+00  .182000000000D+03  .117811100384D+01 -.733673417586D-08
    -.337514058815D-09  .100000000000D+01  .167900000000D+04  .000000000000D+00
     .340000000000D+01  .000000000000D+00 -.605359673500D-08  .980000000000D+02
     .583206000000D+06  .400000000000D+01
27 12  3 17 20  0  0.0  .367838423699D-03  .397903932026D-11  .000000000000D+00
     .550000000000D+02  .885312500000D+02  .387766152017D-08 -.258061997739D+01
     .473484396935D-05  .218462313060D-01  .748410820961D-05  .515376718140D+04
     .590400000000D+06  .540167093277D-07 -.303432266546D+01  .305473804474D-06
     .982237028401D+00  .241156250000D+03 -.110906203999D+01 -.750638409960D-08
     .239295681911D-09  .100000000000D+01  .167900000000D+04  .000000000000D+00
     .485000000000D+01  .000000000000D+00 -.419095158577D-08  .550000000000D+02
     .583206000000D+06  .400000000000D+01
28 12  3 17 20  0  0.0  .123630743474D-03  .397903932026D-11  .000000000000D+00
     .200000000000D+02 -.368750000000D+02  .431267964042D-08 -.156013017938D+01
    -.170804560184D-05  .178930351976D-01  .310875475407D-05  .515370790482D+04
     .590400000000D+06  .368803739548D-06 -.190068167068D+01  .350177288055D-06
     .977882986283D+00  .327000000000D+03 -.183361683336D+01 -.815176812529D-08
    -.178936024832D-09  .100000000000D+01  .167900000000D+04  .000000000000D+00
     .240000000000D+01  .000000000000D+00 -.107102096081D-07  .200000000000D+02
     .583206000000D+06  .400000000000D+01
29 12  3 17 20  0  0.0  .294672325253D-03  .352429196937D-11  .000000000000D+00
     .560000000000D+02 -.705000000000D+02  .433268047353D-08  .659091516344D+00
    -.373460352421D-05  .230395223480D-02  .101253390312D-04  .515361989021D+04
     .590400000000D+06  .260770320892D-07 -.857612672770D+00 -.558793544769D-07
     .963085969288D+00  .187468750000D+03 -.118168807554D+01 -.797604652007D-08
    -.106075847056D-09  .100000000000D+01  .167900000000D+04  .000000000000D+00
     .240000000000D+01  .000000000000D+00 -.931322574615D-08  .560000000000D+02
     .583206000000D+06  .400000000000D+01
31 12  3 17 20  0  0.0  .220642425120D-03  .443378667114D-11  .000000000000D+00
     .360000000000D+02  .759375000000D+02  .409838499990D-08  .130446357189D+01
     .384822487831D-05  .795222225133D-02  .655278563499D-05  .515361086845D+04
     .590400000000D+06  .221654772758D-06 -.297881656040D+01 -.838190317154D-07
     .981062268610D+00  .259000000000D+03 -.882521960308D+00 -.794818821680D-08
     .146434671020D-09  .100000000000D+01  .167900000000D+04  .000000000000D+00
     .240000000000D+01  .000000000000D+00 -.130385160446D-07  .360000000000D+02
     .583206000000D+06  .400000000000D+01
32 12  3 17 20  0  0.0 -.421508681029D-03 -.477484718431D-11  .000000000000D+00
     .111000000000D+03  .406250000000D+00  .510128391752D-08  .191913760232D+01
    -.968575477600D-07  .118464949774D-01  .580959022045D-05  .515371519470D+04
     .590400000000D+06  .156462192535D-06  .128075435848D+01  .126659870148D-06
     .951984338952D+00  .262718750000D+03 -.601822545262D+00 -.823855745470D-08
    -.322156276245D-09  .100000000000D+01  .167900000000D+04  .000000000000D+00
     .340000000000D+01  .000000000000D+00 -.279396772385D-08  .111000000000D+03
     .583206000000D+06  .400000000000D+01
